KUIPER-00044            
1 64505U 25134F   25197.91668981  .00058105  00000+0  19218-2 0  9998
2 64505  51.8665 218.1178 0010698 201.1836 201.0356 15.30736106  4379
KUIPER-00046            
1 64506U 25134G   25197.77080430  .00015939  00000+0  48017-3 0  9998
2 64506  51.8670 218.7334 0009465 196.1318 163.9368 15.34450597  4824
KUIPER-00047            
1 64507U 25134H   25198.23151602  .00016060  00000+0  48966-3 0  9990
2 64507  51.8625 216.5633 0010245 211.3445 148.6930 15.34055964  4433
KUIPER-00048            
1 64508U 25134J   25197.35597862  .00009836  00000+0  28629-3 0  9992
2 64508  51.8755 220.4712 0002938 176.3185 183.7823 15.36054145  4760
KUIPER-00049            
1 64509U 25134K   25197.76024937  .00014763  00000+0  43628-3 0  9997
2 64509  51.8702 218.6734 0006620 190.3750 169.7100 15.35143024  4825
KUIPER-00050            
1 64510U 25134L   25197.43683771  .00013096  00000+0  39031-3 0  9991
2 64510  51.8713 220.2572 0007326 190.2630 169.8207 15.34980336  4775
KUIPER-00051            
1 64511U 25134M   25197.75512995  .00016030  00000+0  46824-3 0  9995
2 64511  51.8721 218.6426 0005093 184.0468 176.0477 15.35447724  4828
KUIPER-00052            
1 64512U 25134N   25197.35178376  .00019160  00000+0  50990-3 0  9999
2 64512  51.8748 220.4449 0003604 198.2499 161.8359 15.38223939  4768
